ISS (ZARYA)             
1 25544U 98067A   26090.84291376  .00010633  00000+0  20301-3 0  9998
2 25544  51.6336 322.8401 0006220 256.5772 103.4524 15.48686199559768
POISK                   
1 36086U 09060A   26090.84291376  .00010633  00000+0  20301-3 0  9996
2 36086  51.6336 322.8401 0006220 256.5772 103.4524 15.48686199559569
CSS (TIANHE)            
1 48274U 21035A   26090.84865758  .00027797  00000+0  31477-3 0  9990
2 48274  41.4668  73.2165 0003682  84.3022 275.8236 15.61775142281078
ISS (NAUKA)             
1 49044U 21066A   26090.84291376  .00010633  00000+0  20301-3 0  9994
2 49044  51.6336 322.8401 0006220 256.5772 103.4524 15.48686199559602
FREGAT DEB              
1 49271U 11037PF  26090.67957297  .00010175  00000+0  14593-1 0  9990
2 49271  51.6441 234.7225 0959012 109.8247 260.8471 12.40815219215423
CSS (WENTIAN)           
1 53239U 22085A   26090.84865758  .00027797  00000+0  31477-3 0  9993
2 53239  41.4668  73.2165 0003682  84.3022 275.8236 15.61775142281334
CSS (MENGTIAN)          
1 54216U 22143A   26090.84865758  .00027797  00000+0  31477-3 0  9994
2 54216  41.4668  73.2165 0003682  84.3022 275.8236 15.61775142281330
TIANZHOU-9              
1 64786U 25149A   26090.84865758  .00027797  00000+0  31477-3 0  9996
2 64786  41.4668  73.2165 0003682  84.3022 275.8236 15.61775142281333
PROGRESS-MS 32          
1 65586U 25204A   26090.52027159  .00011565  00000+0  22010-3 0  9996
2 65586  51.6339 324.4353 0006210 255.4271 104.6029 15.48680190554501
YOTSUBA-KULOVER         
1 65941U 98067XN  26090.87808049  .00468364  98467-4  12276-2 0  9995
2 65941  51.6165 301.1906 0006827 240.2535 119.7793 15.94260601 27027
BOTAN                   
1 65943U 98067XQ  26090.01293832  .00437127  84923-4  12667-2 0  9990
2 65943  51.6201 305.9446 0006756 227.9633 132.0799 15.92367740 26880
HRC MONOBLOCK CAMERA    
1 66052U 98067XR  26090.88082359  .00059643  00000+0  60544-3 0  9997
2 66052  51.6277 313.3386 0003816 200.4920 159.5922 15.64616207 25863
